NORAD_CAT_ID,OBJECT_NAME,OBJECT_TYPE,EPOCH,MEAN_MOTION,ECCENTRICITY,INCLINATION,RA_OF_ASC_NODE,ARG_OF_PERICENTER,MEAN_ANOMALY,BSTAR,MEAN_MOTION_DOT,MEAN_MOTION_DDOT,TLE_LINE0,TLE_LINE1,TLE_LINE2,SEMIMAJOR_AXIS,PERIOD,APOGEE,PERIGEE,DECAYED
49443.0,STARLINK-3136,PAYLOAD,2023-09-06 19:46:58,15.08848744,0.0001204,53.218,356.1107,98.7521,261.3608,0.00020679,3.005e-05,0.0,0 STARLINK-3136,1 49443U 21104AM  23249.82428979  .00003005  00000-0  20679-3 0  9996,2 49443  53.2180 356.1107 0001204  98.7521 261.3608 15.08848744100801,6917.854,95.437,540.552,538.886,0.0
49443.0,STARLINK-3136,PAYLOAD,2023-09-07 00:33:08,15.08847216,0.0001264,53.2193,355.2185,86.3909,273.7228,0.00010519,1.387e-05,0.0,0 STARLINK-3136,1 49443U 21104AM  23250.02301386  .00001387  00000-0  10519-3 0  9995,2 49443  53.2193 355.2185 0001264  86.3909 273.7228 15.08847216101900,6917.858,95.437,540.598,538.849,0.0
49443.0,STARLINK-3136,PAYLOAD,2023-09-07 06:54:41,15.08831018,0.0001049,53.2189,354.0292,95.3612,264.75,1.1148e-05,-1.1e-06,0.0,0 STARLINK-3136,1 49443U 21104AM  23250.28798375 -.00000110  00000-0  11148-4 0  9995,2 49443  53.2189 354.0292 0001049  95.3612 264.7500 15.08831018101943,6917.908,95.438,540.499,539.047,0.0
49443.0,STARLINK-3136,PAYLOAD,2023-09-08 00:23:54,15.08851562,0.0001319,53.2168,350.7608,137.6106,222.4988,-3.6612e-05,-8.71e-06,0.0,0 STARLINK-3136,1 49443U 21104AM  23251.01660841 -.00000871  00000-0 -36612-4 0  9991,2 49443  53.2168 350.7608 0001319 137.6106 222.4988 15.08851562102052,6917.845,95.437,540.623,538.798,0.0
49443.0,STARLINK-3136,PAYLOAD,2023-09-08 09:56:14,15.08818675,0.0001478,53.2175,348.976,82.2102,277.9058,0.00037138,5.624e-05,0.0,0 STARLINK-3136,1 49443U 21104AM  23251.41405780  .00005624  00000-0  37138-3 0  9996,2 49443  53.2175 348.9760 0001478  82.2102 277.9058 15.08818675102113,6917.946,95.439,540.833,538.788,0.0
49443.0,STARLINK-3136,PAYLOAD,2023-09-08 13:07:00,15.08835292,0.0001268,53.2186,348.3798,92.463,267.6508,0.00022523,3.298e-05,0.0,0 STARLINK-3136,1 49443U 21104AM  23251.54653495  .00003298  00000-0  22523-3 0  9995,2 49443  53.2186 348.3798 0001268  92.4630 267.6508 15.08835292101069,6917.895,95.438,540.637,538.883,0.0
49443.0,STARLINK-3136,PAYLOAD,2023-09-08 16:17:46,15.08837758,0.0001358,53.2189,347.7836,103.2911,256.8232,0.00024361,3.591e-05,0.0,0 STARLINK-3136,1 49443U 21104AM  23251.67901360  .00003591  00000-0  24361-3 0  9994,2 49443  53.2189 347.7836 0001358 103.2911 256.8232 15.08837758102155,6917.887,95.438,540.692,538.813,0.0
49443.0,STARLINK-3136,PAYLOAD,2023-09-09 11:22:24,15.08838567,0.0001476,53.2188,344.2152,102.1506,257.9652,0.0001422,1.976e-05,0.0,0 STARLINK-3136,1 49443U 21104AM  23252.47389928  .00001976  00000-0  14220-3 0  9991,2 49443  53.2188 344.2152 0001476 102.1506 257.9652 15.08838567102276,6917.885,95.438,540.771,538.729,0.0
49443.0,STARLINK-3136,PAYLOAD,2023-09-09 12:57:47,15.08843415,0.000136,53.2193,343.9206,91.9206,268.1942,0.00010901,1.448e-05,0.0,0 STARLINK-3136,1 49443U 21104AM  23252.54013730  .00001448  00000-0  10901-3 0  9990,2 49443  53.2193 343.9206 0001360  91.9206 268.1942 15.08843415101219,6917.87,95.437,540.676,538.794,0.0
49443.0,STARLINK-3136,PAYLOAD,2023-09-10 12:48:34,15.08847822,0.0001383,53.2178,339.4597,94.7782,265.3368,0.00010354,1.361e-05,0.0,0 STARLINK-3136,1 49443U 21104AM  23253.53373527  .00001361  00000-0  10354-3 0  9999,2 49443  53.2178 339.4597 0001383  94.7782 265.3368 15.08847822101363,6917.856,95.437,540.678,538.765,0.0
49443.0,STARLINK-3136,PAYLOAD,2023-09-10 15:59:20,15.0885003,0.0001375,53.218,338.8644,94.2666,265.8483,0.00013353,1.838e-05,0.0,0 STARLINK-3136,1 49443U 21104AM  23253.66621370  .00001838  00000-0  13353-3 0  9996,2 49443  53.2180 338.8644 0001375  94.2666 265.8483 15.08850030102458,6917.85,95.437,540.666,538.764,0.0
49443.0,STARLINK-3136,PAYLOAD,2023-09-11 09:28:36,15.08832474,0.000144,53.2183,335.5962,92.9571,267.1586,-5.8185e-05,-1.214e-05,0.0,0 STARLINK-3136,1 49443U 21104AM  23254.39486380 -.00001214  00000-0 -58185-4 0  9990,2 49443  53.2183 335.5962 0001440  92.9571 267.1586 15.08832474102564,6917.903,95.438,540.765,538.772,0.0
49443.0,STARLINK-3136,PAYLOAD,2023-09-11 12:39:22,15.08835674,0.0001448,53.2183,335.0023,92.2984,267.8174,-1.5774e-06,-3.13e-06,0.0,0 STARLINK-3136,1 49443U 21104AM  23254.52734276 -.00000313  00000-0 -15774-5 0  9992,2 49443  53.2183 335.0023 0001448  92.2984 267.8174 15.08835674101515,6917.894,95.438,540.76,538.757,0.0
49443.0,STARLINK-3136,PAYLOAD,2023-09-11 15:50:08,15.08842972,0.0001467,53.2178,334.4061,97.6287,262.4872,-4.089e-05,-9.39e-06,0.0,0 STARLINK-3136,1 49443U 21104AM  23254.65981827 -.00000939  00000-0 -40890-4 0  9992,2 49443  53.2178 334.4061 0001467  97.6287 262.4872 15.08842972102606,6917.871,95.437,540.751,538.721,0.0
49443.0,STARLINK-3136,PAYLOAD,2023-09-12 12:30:08,15.08852281,0.0001311,53.217,330.5393,85.0411,275.0731,0.0001347,1.857e-05,0.0,0 STARLINK-3136,1 49443U 21104AM  23255.52093491  .00001857  00000-0  13470-3 0  9991,2 49443  53.2170 330.5393 0001311  85.0411 275.0731 15.08852281101664,6917.843,95.437,540.615,538.801,0.0
49443.0,STARLINK-3136,PAYLOAD,2023-09-12 14:05:31,15.08854191,0.0001334,53.2172,330.2422,85.6279,274.4865,0.00020072,2.909e-05,0.0,0 STARLINK-3136,1 49443U 21104AM  23255.58717416  .00002909  00000-0  20072-3 0  9992,2 49443  53.2172 330.2422 0001334  85.6279 274.4865 15.08854191102742,6917.837,95.437,540.625,538.779,0.0
49443.0,STARLINK-3136,PAYLOAD,2023-09-12 22:02:27,15.08843863,0.0001421,53.2181,328.7527,80.0213,280.0939,8.0224e-05,9.89e-06,0.0,0 STARLINK-3136,1 49443U 21104AM  23255.91837780  .00000989  00000-0  80224-4 0  9998,2 49443  53.2181 328.7527 0001421  80.0213 280.0939 15.08843863102798,6917.869,95.437,540.717,538.751,0.0
49443.0,STARLINK-3136,PAYLOAD,2023-09-13 12:20:55,15.08850957,0.0001454,53.2174,326.0793,84.1103,276.0055,0.00019037,2.744e-05,0.0,0 STARLINK-3136,1 49443U 21104AM  23256.51453446  .00002744  00000-0  19037-3 0  9992,2 49443  53.2174 326.0793 0001454  84.1103 276.0055 15.08850957101813,6917.847,95.437,540.718,538.706,0.0
49443.0,STARLINK-3136,PAYLOAD,2023-09-14 10:36:21,15.08824209,0.0001296,53.2166,321.9156,94.6836,265.4304,-0.00017303,-3.039e-05,0.0,0 STARLINK-3136,1 49443U 21104AM  23257.44191046 -.00003039  00000-0 -17303-3 0  9994,2 49443  53.2166 321.9156 0001296  94.6836 265.4304 15.08824209103029,6917.929,95.439,540.69,538.897,0.0
49443.0,STARLINK-3136,PAYLOAD,2023-09-14 12:11:44,15.08826175,0.0001445,53.2179,321.6167,92.6515,267.4643,-0.00017115,-3.01e-05,0.0,0 STARLINK-3136,1 49443U 21104AM  23257.50815054 -.00003010  00000-0 -17115-3 0  9993,2 49443  53.2179 321.6167 0001445  92.6515 267.4643 15.08826175101963,6917.923,95.438,540.787,538.788,0.0
49443.0,STARLINK-3136,PAYLOAD,2023-09-14 13:47:07,15.08823523,0.0001483,53.2179,321.3203,88.8503,271.2659,-0.00019227,-3.345e-05,0.0,0 STARLINK-3136,1 49443U 21104AM  23257.57439274 -.00003345  00000-0 -19227-3 0  9993,2 49443  53.2179 321.3203 0001483  88.8503 271.2659 15.08823523101972,6917.931,95.439,540.822,538.77,0.0
49443.0,STARLINK-3136,PAYLOAD,2023-09-15 10:27:08,15.08845984,0.0001403,53.2165,317.4555,72.5169,287.5976,0.00041387,6.306e-05,0.0,0 STARLINK-3136,1 49443U 21104AM  23258.43551276  .00006306  00000-0  41387-3 0  9996,2 49443  53.2165 317.4555 0001403  72.5169 287.5976 15.08845984103174,6917.862,95.437,540.698,538.757,0.0
49443.0,STARLINK-3136,PAYLOAD,2023-09-16 10:17:55,15.08853272,0.0001604,53.2162,312.9959,66.8238,293.2923,0.00044191,6.755e-05,0.0,0 STARLINK-3136,1 49443U 21104AM  23259.42911292  .00006755  00000-0  44191-3 0  9998,2 49443  53.2162 312.9959 0001604  66.8238 293.2923 15.08853272103327,6917.84,95.437,540.814,538.595,0.0
49443.0,STARLINK-3136,PAYLOAD,2023-09-16 13:28:41,15.08855863,0.0001581,53.2161,312.4007,68.6623,291.4538,0.00044904,6.869e-05,0.0,0 STARLINK-3136,1 49443U 21104AM  23259.56159101  .00006869  00000-0  44904-3 0  9994,2 49443  53.2161 312.4007 0001581  68.6623 291.4538 15.08855863102270,6917.832,95.437,540.791,538.603,0.0
49443.0,STARLINK-3136,PAYLOAD,2023-09-17 08:33:18,15.08853158,0.0001373,53.2166,308.8292,88.9953,271.1196,0.00029068,4.343e-05,0.0,0 STARLINK-3136,1 49443U 21104AM  23260.35646806  .00004343  00000-0  29068-3 0  9995,2 49443  53.2166 308.8292 0001373  88.9953 271.1196 15.08853158102393,6917.84,95.437,540.655,538.755,0.0
49443.0,STARLINK-3136,PAYLOAD,2023-09-18 02:02:33,15.08849012,0.0001601,53.2167,305.5621,79.352,280.7652,0.00015962,2.254e-05,0.0,0 STARLINK-3136,1 49443U 21104AM  23261.08510723  .00002254  00000-0  15962-3 0  9991,2 49443  53.2167 305.5621 0001601  79.3520 280.7652 15.08849012103570,6917.853,95.437,540.825,538.61,0.0
49443.0,STARLINK-3136,PAYLOAD,2023-09-18 09:59:28,15.08848914,0.0001612,53.2172,304.0749,88.3143,271.8034,9.1885e-05,1.175e-05,0.0,0 STARLINK-3136,1 49443U 21104AM  23261.41630504  .00001175  00000-0  91885-4 0  9998,2 49443  53.2172 304.0749 0001612  88.3143 271.8034 15.08848914102556,6917.853,95.437,540.833,538.603,0.0
49443.0,STARLINK-3136,PAYLOAD,2023-09-18 19:31:47,15.08844999,0.0001647,53.2172,302.2904,83.5122,276.6058,-1.9603e-06,-3.19e-06,0.0,0 STARLINK-3136,1 49443U 21104AM  23261.81374552 -.00000319  00000-0 -19603-5 0  9990,2 49443  53.2172 302.2904 0001647  83.5122 276.6058 15.08844999102616,6917.865,95.437,540.869,538.591,0.0
49443.0,STARLINK-3136,PAYLOAD,2023-09-19 01:53:20,15.08843493,0.0001696,53.2169,301.1008,92.488,267.6306,7.6526e-05,9.3e-06,0.0,0 STARLINK-3136,1 49443U 21104AM  23262.07870620  .00000930  00000-0  76526-4 0  9999,2 49443  53.2169 301.1008 0001696  92.4880 267.6306 15.08843493103726,6917.87,95.437,540.908,538.561,0.0
49443.0,STARLINK-3136,PAYLOAD,2023-09-20 03:19:30,15.08833029,0.000151,53.2167,296.3412,93.748,266.3685,5.8086e-05,6.36e-06,0.0,0 STARLINK-3136,1 49443U 21104AM  23263.13855008  .00000636  00000-0  58086-4 0  9994,2 49443  53.2167 296.3412 0001510  93.7480 266.3685 15.08833029103880,6917.902,95.438,540.811,538.722,0.0
